$$SOE
2461281.500000000, A.D. 2026-Aug-29 00:00:00.0000, -4.420563509225541E+09, -3.495168643627976E+09, -3.934932161400604E+08,
2461288.500000000, A.D. 2026-Sep-05 00:00:00.0000, -4.418593494625647E+09, -3.497271617262436E+09, -3.943751035999293E+08,
2461295.500000000, A.D. 2026-Sep-12 00:00:00.0000, -4.416622260206751E+09, -3.499373697176649E+09, -3.952568849323289E+08,
2461302.500000000, A.D. 2026-Sep-19 00:00:00.0000, -4.414649807943377E+09, -3.501474883693987E+09, -3.961385597359381E+08,
2461309.500000000, A.D. 2026-Sep-26 00:00:00.0000, -4.412676139432062E+09, -3.503575177720174E+09, -3.970201276574984E+08,
2461316.500000000, A.D. 2026-Oct-03 00:00:00.0000, -4.410701255821100E+09, -3.505674580507928E+09, -3.979015883821311E+08,
2461323.500000000, A.D. 2026-Oct-10 00:00:00.0000, -4.408725157826898E+09, -3.507773093514278E+09, -3.987829416242199E+08,
2461330.500000000, A.D. 2026-Oct-17 00:00:00.0000, -4.406747845785254E+09, -3.509870718331438E+09, -3.996641871219485E+08,
2461337.500000000, A.D. 2026-Oct-24 00:00:00.0000, -4.404769319713203E+09, -3.511967456713757E+09, -4.005453246394968E+08,
2461344.500000000, A.D. 2026-Oct-31 00:00:00.0000, -4.402789579282646E+09, -3.514063310767400E+09, -4.014263539912670E+08,
2461351.500000000, A.D. 2026-Nov-07 00:00:00.0000, -4.400808623366698E+09, -3.516158283228664E+09, -4.023072751130257E+08,
2461358.500000000, A.D. 2026-Nov-14 00:00:00.0000, -4.398826448957893E+09, -3.518252376943499E+09, -4.031880881256652E+08,
2461365.500000000, A.D. 2026-Nov-21 00:00:00.0000, -4.396843051269978E+09, -3.520345592866373E+09, -4.040687931694522E+08,
2461372.500000000, A.D. 2026-Nov-28 00:00:00.0000, -4.394858426021397E+09, -3.522437929586534E+09, -4.049493901627879E+08,
2461379.500000000, A.D. 2026-Dec-05 00:00:00.0000, -4.392872570280931E+09, -3.524529385037991E+09, -4.058298788708153E+08,
2461386.500000000, A.D. 2026-Dec-12 00:00:00.0000, -4.390885481710579E+09, -3.526619957282258E+09, -4.067102590444541E+08,
2461393.500000000, A.D. 2026-Dec-19 00:00:00.0000, -4.388897158092904E+09, -3.528709644357400E+09, -4.075905304560082E+08,
2461400.500000000, A.D. 2026-Dec-26 00:00:00.0000, -4.386907597285336E+09, -3.530798444061483E+09, -4.084706928889794E+08,
2461407.500000000, A.D. 2027-Jan-02 00:00:00.0000, -4.384916797325792E+09, -3.532886353861452E+09, -4.093507461228287E+08,
2461414.500000000, A.D. 2027-Jan-09 00:00:00.0000, -4.382924756573340E+09, -3.534973370907433E+09, -4.102306899216352E+08,
2461421.500000000, A.D. 2027-Jan-16 00:00:00.0000, -4.380931473849566E+09, -3.537059492143883E+09, -4.111105240291028E+08,
2461428.500000000, A.D. 2027-Jan-23 00:00:00.0000, -4.378936948536103E+09, -3.539144714557389E+09, -4.119902481773391E+08,
2461435.500000000, A.D. 2027-Jan-30 00:00:00.0000, -4.376941180442187E+09, -3.541229035609107E+09, -4.128698621305802E+08,
2461442.500000000, A.D. 2027-Feb-06 00:00:00.0000, -4.374944169019125E+09, -3.543312453511961E+09, -4.137493657751000E+08,
2461449.500000000, A.D. 2027-Feb-13 00:00:00.0000, -4.372945912383589E+09, -3.545394966133057E+09, -4.146287591135519E+08,
2461456.500000000, A.D. 2027-Feb-20 00:00:00.0000, -4.370946408514900E+09, -3.547476569312406E+09, -4.155080420117576E+08,
2461463.500000000, A.D. 2027-Feb-27 00:00:00.0000, -4.368945657231360E+09, -3.549557257811674E+09, -4.163872140887914E+08,
2461470.500000000, A.D. 2027-Mar-06 00:00:00.0000, -4.366943659928106E+09, -3.551637026970399E+09, -4.172662748702674E+08,
2461477.500000000, A.D. 2027-Mar-13 00:00:00.0000, -4.364940418677052E+09, -3.553715873020230E+09, -4.181452238907495E+08,
2461484.500000000, A.D. 2027-Mar-20 00:00:00.0000, -4.362935935818474E+09, -3.555793792891815E+09, -4.190240607101080E+08,
2461491.500000000, A.D. 2027-Mar-27 00:00:00.0000, -4.360930213842265E+09, -3.557870784063301E+09, -4.199027849073410E+08,
2461498.500000000, A.D. 2027-Apr-03 00:00:00.0000, -4.358923255355983E+09, -3.559946844498157E+09, -4.207813960744741E+08,
2461505.500000000, A.D. 2027-Apr-10 00:00:00.0000, -4.356915063078420E+09, -3.562021972649282E+09, -4.216598938143625E+08,
2461512.500000000, A.D. 2027-Apr-17 00:00:00.0000, -4.354905639836642E+09, -3.564096167543695E+09, -4.225382777456174E+08,
2461519.500000000, A.D. 2027-Apr-24 00:00:00.0000, -4.352894988487288E+09, -3.566169429009968E+09, -4.234165475270426E+08,
2461526.500000000, A.D. 2027-May-01 00:00:00.0000, -4.350883111462458E+09, -3.568241758020599E+09, -4.242947029267831E+08,
2461533.500000000, A.D. 2027-May-08 00:00:00.0000, -4.348870009632849E+09, -3.570313156400918E+09, -4.251727439032156E+08,
2461540.500000000, A.D. 2027-May-15 00:00:00.0000, -4.346855681984972E+09, -3.572383624951110E+09, -4.260506704823525E+08,
2461547.500000000, A.D. 2027-May-22 00:00:00.0000, -4.344840127676328E+09, -3.574453162572932E+09, -4.269284825000858E+08,
2461554.500000000, A.D. 2027-May-29 00:00:00.0000, -4.342823347112613E+09, -3.576521767869416E+09, -4.278061796369941E+08,
2461561.500000000, A.D. 2027-Jun-05 00:00:00.0000, -4.340805341162122E+09, -3.578589440085767E+09, -4.286837615708349E+08,
2461568.500000000, A.D. 2027-Jun-12 00:00:00.0000, -4.338786110514859E+09, -3.580656178959694E+09, -4.295612280272038E+08,
2461575.500000000, A.D. 2027-Jun-19 00:00:00.0000, -4.336765655517408E+09, -3.582721984416173E+09, -4.304385787742603E+08,
2461582.500000000, A.D. 2027-Jun-26 00:00:00.0000, -4.334743976204104E+09, -3.584786856367948E+09, -4.313158136083348E+08,
2461589.500000000, A.D. 2027-Jul-03 00:00:00.0000, -4.332721072392426E+09, -3.586850794613491E+09, -4.321929323416295E+08,
2461596.500000000, A.D. 2027-Jul-10 00:00:00.0000, -4.330696943805722E+09, -3.588913798823683E+09, -4.330699347944496E+08,
2461603.500000000, A.D. 2027-Jul-17 00:00:00.0000, -4.328671590186957E+09, -3.590975868656080E+09, -4.339468207982244E+08,
2461610.500000000, A.D. 2027-Jul-24 00:00:00.0000, -4.326645011247026E+09, -3.593037004059577E+09, -4.348235902285471E+08,
2461617.500000000, A.D. 2027-Jul-31 00:00:00.0000, -4.324617206036223E+09, -3.595097205533938E+09, -4.357002430864964E+08,
2461624.500000000, A.D. 2027-Aug-07 00:00:00.0000, -4.322588171939580E+09, -3.597156473192495E+09, -4.365767795155258E+08,
2461631.500000000, A.D. 2027-Aug-14 00:00:00.0000, -4.320557905597191E+09, -3.599214804881289E+09, -4.374531995634670E+08,
2461638.500000000, A.D. 2027-Aug-21 00:00:00.0000, -4.318526405131317E+09, -3.601272196718866E+09, -4.383295030212333E+08,
2461645.500000000, A.D. 2027-Aug-28 00:00:00.0000, -4.316493670249192E+09, -3.603328644853501E+09, -4.392056895546122E+08,
2461652.500000000, A.D. 2027-Sep-04 00:00:00.0000, -4.314459701402682E+09, -3.605384145935528E+09, -4.400817588164451E+08,
2461659.500000000, A.D. 2027-Sep-11 00:00:00.0000, -4.312424499400130E+09, -3.607438696966112E+09, -4.409577104654598E+08,
2461666.500000000, A.D. 2027-Sep-18 00:00:00.0000, -4.310388065337169E+09, -3.609492295172504E+09, -4.418335441573505E+08,
2461673.500000000, A.D. 2027-Sep-25 00:00:00.0000, -4.308350400617671E+09, -3.611544937987198E+09, -4.427092595357060E+08,
2461680.500000000, A.D. 2027-Oct-02 00:00:00.0000, -4.306311506989751E+09, -3.613596623103090E+09, -4.435848562276812E+08,
2461687.500000000, A.D. 2027-Oct-09 00:00:00.0000, -4.304271386574310E+09, -3.615647348608732E+09, -4.444603338470917E+08,
2461694.500000000, A.D. 2027-Oct-16 00:00:00.0000, -4.302230041822862E+09, -3.617697113258162E+09, -4.453356920154426E+08,
2461701.500000000, A.D. 2027-Oct-23 00:00:00.0000, -4.300187475144614E+09, -3.619745916880594E+09, -4.462109304253714E+08,
2461708.500000000, A.D. 2027-Oct-30 00:00:00.0000, -4.298143687827983E+09, -3.621793760319277E+09, -4.470860489311419E+08,
2461715.500000000, A.D. 2027-Nov-06 00:00:00.0000, -4.296098679419836E+09, -3.623840643771132E+09, -4.479610474673934E+08,
2461722.500000000, A.D. 2027-Nov-13 00:00:00.0000, -4.294052449547848E+09, -3.625886565603126E+09, -4.488359257837770E+08,
2461729.500000000, A.D. 2027-Nov-20 00:00:00.0000, -4.292004999284037E+09, -3.627931523831087E+09, -4.497106834402933E+08,
2461736.500000000, A.D. 2027-Nov-27 00:00:00.0000, -4.289956330431874E+09, -3.629975517296391E+09, -4.505853199693904E+08,
2461743.500000000, A.D. 2027-Dec-04 00:00:00.0000, -4.287906444760534E+09, -3.632018545626503E+09, -4.514598349445059E+08,
2461750.500000000, A.D. 2027-Dec-11 00:00:00.0000, -4.285855343736821E+09, -3.634060608943262E+09, -4.523342279832838E+08,
2461757.500000000, A.D. 2027-Dec-18 00:00:00.0000, -4.283803028479819E+09, -3.636101707657918E+09, -4.532084987383235E+08,
2461764.500000000, A.D. 2027-Dec-25 00:00:00.0000, -4.281749499786252E+09, -3.638141842354970E+09, -4.540826468894808E+08,
2461771.500000000, A.D. 2028-Jan-01 00:00:00.0000, -4.279694758185163E+09, -3.640181013750127E+09, -4.549566721402366E+08,
$$EOE